satname,norad_id,inclination_deg,eccentricity,mean_motion_rev_per_day,perigee_km,apogee_km,l1,l2
STARLINK-1513,45786,53.0543,0.0001471,15.06409235,546.1645395285759,548.2019687473421,1 45786U 20038BJ  26021.47606994  .00005700  00000+0  40118-3 0  9997,2 45786  53.0543  48.5696 0001471  85.1118 275.0039 15.06409235309640
STARLINK-1522,46027,53.0544,0.0001428,15.06397588,546.2300095510354,548.2078912104644,1 46027U 20055A   26021.25768785 -.00002552  00000+0 -15251-3 0  9992,2 46027  53.0544 339.5445 0001428  75.4148 284.6999 15.06397588301732
STARLINK-1523,46028,53.0556,0.0001342,15.06421064,546.2176274514286,548.0763736771796,1 46028U 20055B   26020.60895383  .00006411  00000+0  44862-3 0  9992,2 46028  53.0556 342.4618 0001342  87.5186 272.5957 15.06421064301650
STARLINK-1526,46029,53.0576,0.0001423,15.06371315,546.313985116627,548.2849643373356,1 46029U 20055C   26021.26508066 -.00002181  00000+0 -12766-3 0  9995,2 46029  53.0576 339.5163 0001423  84.8258 275.2893 15.06371315301747
STARLINK-1555,46032,53.0546,0.0001381,15.06357132,546.3865365194815,548.2993540803745,1 46032U 20055F   26021.31668095 -.00013649  00000+0 -90019-3 0  9992,2 46032  53.0546 339.2825 0001381  83.3124 276.8022 15.06357132301752
STARLINK-1556,46033,53.0565,0.0001633,15.06352246,546.2269876163718,548.4888542575509,1 46033U 20055G   26021.29824654 -.00019455  00000+0 -12924-2 0  9994,2 46033  53.0565 339.3630 0001633  94.8725 265.2451 15.06352246301729
STARLINK-1557,46034,53.0558,0.0001394,15.064173,546.1931502395855,548.1239226351436,1 46034U 20055H   26020.90382294  .00002449  00000+0  18313-3 0  9993,2 46034  53.0558 341.1356 0001394  95.0140 265.1008 15.06417300301669
STARLINK-1558,46035,53.0551,0.000143,15.06356753,546.3537631373865,548.3344507339707,1 46035U 20055J   26021.30930736 -.00012095  00000+0 -79539-3 0  9996,2 46035  53.0551 339.3157 0001430 112.9238 247.1902 15.06356753301756
STARLINK-1560,46036,53.0556,0.0002026,15.06396717,545.818542222325,548.6246975350996,1 46036U 20055K   26020.10031385  .00003797  00000+0  27371-3 0  9990,2 46036  53.0556 344.7435 0002026  90.2381 269.8840 15.06396717301576
STARLINK-1567,46038,53.0545,0.0001477,15.06415692,546.1405977571985,548.1863315144528,1 46038U 20055M   26020.90751580  .00002916  00000+0  21450-3 0  9990,2 46038  53.0545 341.1202 0001477 100.1272 259.9884 15.06415692301682
STARLINK-1569,46039,53.0569,0.0003269,15.06437021,544.8342368759968,549.3619555819105,1 46039U 20055N   26020.91489174  .00013938  00000+0  95174-3 0  9999,2 46039  53.0569 341.0882 0003269  88.2303 271.9060 15.06437021301684
STARLINK-1582,46043,53.0549,0.0001001,15.064204,546.4558144498296,547.8422567141533,1 46043U 20055S   26021.32033741  .00007546  00000+0  52464-3 0  9998,2 46043  53.0549 339.2648 0001001  94.9870 265.1233 15.06420400301748
STARLINK-1591,46045,53.0567,0.0001597,15.06382935,546.157873681841,548.3698467165887,1 46045U 20055U   26020.88174922  .00007603  00000+0  52900-3 0  9996,2 46045  53.0567 341.2363 0001597  94.4426 265.6746 15.06382935301664
STARLINK-1524,46047,53.0544,9.71e-05,15.06361161,546.6581335334331,548.0030593406609,1 46047U 20055W   26021.23282190 -.00012340  00000+0 -81184-3 0  9997,2 46047  53.0544 329.6591 0000971 109.8055 250.3039 15.06361161301875
STARLINK-1527,46048,53.055,0.0001214,15.06342106,546.5482415364722,548.2297592493678,1 46048U 20055X   26021.29549583 -.00014932  00000+0 -98722-3 0  9991,2 46048  53.0550 329.3769 0001214  76.7041 283.4083 15.06342106301868
STARLINK-1540,46051,53.0543,0.0001411,15.06417277,546.1814477175658,548.1357661378415,1 46051U 20055AA  26020.99690877  .00009584  00000+0  66114-3 0  9999,2 46051  53.0543 330.7183 0001411  84.7763 275.3387 15.06417277301857
STARLINK-1541,46052,53.0541,0.0001195,15.06398451,546.3887256842536,548.0438851242452,1 46052U 20055AB  26020.84946641 -.00007344  00000+0 -47468-3 0  9992,2 46052  53.0541 331.3813 0001195  99.5898 260.5226 15.06398451301798
STARLINK-1543,46053,53.0565,0.0001032,15.06435487,546.3881127823361,547.8174822765468,1 46053U 20055AC  26020.58775395  .00013470  00000+0  92054-3 0  9996,2 46053  53.0565 332.5558 0001032 107.9906 252.1196 15.06435487301781
STARLINK-1548,46054,53.0551,0.0001208,15.06377108,546.445128928417,548.1183100910503,1 46054U 20055AD  26020.99322483 -.00006977  00000+0 -45027-3 0  9992,2 46054  53.0551 330.7345 0001208 109.9004 250.2115 15.06377108301849
STARLINK-1554,46055,53.0554,0.0001535,15.06437647,546.0331544155824,548.1592010011391,1 46055U 20055AE  26020.24864954  .00015369  00000+0  10473-2 0  9994,2 46055  53.0554 334.0778 0001535  98.7290 261.3873 15.06437647301732
STARLINK-1564,46058,53.0555,9.07e-05,15.06371702,546.6701516096537,547.9264255710041,1 46058U 20055AH  26021.25499329 -.00016347  00000+0 -10819-2 0  9992,2 46058  53.0555 330.0240 0000907  91.8337 268.2756 15.06371702301874
STARLINK-1570,46059,53.0551,0.0001046,15.06380198,546.5478510736666,547.9966466885326,1 46059U 20055AJ  26020.88634433 -.00002606  00000+0 -15620-3 0  9997,2 46059  53.0551 331.2167 0001046 109.6062 250.5040 15.06380198301789
STARLINK-1572,46060,53.0548,0.0001195,15.06402424,546.3765504724752,548.0317070022438,1 46060U 20055AK  26020.88263959 -.00005110  00000+0 -32439-3 0  9990,2 46060  53.0548 331.2299 0001195 103.4948 256.6175 15.06402424301797
STARLINK-1573,46061,53.0567,0.0001335,15.06414163,546.2436224855937,548.0926789608366,1 46061U 20055AL  26020.87895378  .00001673  00000+0  13110-3 0  9999,2 46061  53.0567 331.2862 0001335  98.1164 261.9976 15.06414163301826
STARLINK-1577,46063,53.0558,0.0001977,15.06435723,545.7329544869444,548.4711940169036,1 46063U 20055AN  26020.57301944  .00029040  00000+0  19585-2 0  9998,2 46063  53.0558 332.6214 0001977  84.3555 275.7660 15.06435723301779
STARLINK-1583,46064,53.0559,0.0001403,15.06451017,546.0835981277578,548.0268070598049,1 46064U 20055AP  26020.27443623  .00012743  00000+0  87166-3 0  9990,2 46064  53.0559 333.9621 0001403  90.6592 269.4557 15.06451017301737
STARLINK-1525,46066,53.0553,0.0002334,15.0639864,545.5993488192553,548.8321034718192,1 46066U 20055AR  26020.53800817 -.00000231  00000+0  34421-5 0  9991,2 46066  53.0553 312.7794 0002334  77.3170 282.8080 15.06398640302044
STARLINK-1536,46070,53.0542,0.000133,15.06365821,546.3952283405733,548.2373989219996,1 46070U 20055AV  26021.51111998 -.00010480  00000+0 -68637-3 0  9992,2 46070  53.0542 308.4113 0001330  83.0218 277.0923 15.06365821302201
